     2.11           GLONASS NAV DATA                        RINEX VERSION / TYPE
cnvtToRINEX 2.19.0  convertToRINEX OPR  08-Jul-14 14:18 UTC PGM / RUN BY / DATE 
----------------------------------------------------------- COMMENT             
  2014     5     8    0.188592821360D-06                    CORR TO SYSTEM TIME 
    16                                                      LEAP SECONDS        
                                                            END OF HEADER       
20 14 05 08 18 45  0.0-0.108757987618D-03-0.181898940355D-11 0.666000000000D+05
    0.139427626953D+05-0.216037654877D+01 0.186264514923D-08 0.000000000000D+00
    0.397286132813D+03 0.197172164917D+01 0.000000000000D+00 0.200000000000D+01
    0.213529233398D+05 0.138015365601D+01-0.186264514923D-08 0.000000000000D+00
10 14 05 08 18 45  0.0-0.152662396431D-04 0.000000000000D+00 0.666000000000D+05
    0.223398696289D+05 0.167594051361D+01 0.279396772385D-08 0.000000000000D+00
    0.442552246094D+03 0.247953414917D+00 0.931322574615D-09-0.700000000000D+01
    0.122106103516D+05-0.307526969910D+01-0.931322574615D-09 0.000000000000D+00
22 14 05 08 18 45  0.0 0.122712925076D-03 0.000000000000D+00 0.666600000000D+05
    0.152964760742D+05 0.509482383728D+00 0.000000000000D+00 0.000000000000D+00
   -0.192827226563D+05-0.738121032715D+00 0.931322574615D-09-0.300000000000D+01
   -0.639822070313D+04 0.345106983185D+01 0.931322574615D-09 0.000000000000D+00
 3 14 05 08 18 45  0.0 0.149905681610D-04 0.909494701773D-12 0.678600000000D+05
   -0.101975913086D+05-0.806512832642D+00 0.000000000000D+00 0.000000000000D+00
    0.425948925781D+04-0.303695774078D+01-0.931322574615D-09 0.500000000000D+01
    0.230286962891D+05 0.202862739563D+00-0.186264514923D-08 0.000000000000D+00
11 14 05 08 19 15  0.0-0.179205089808D-04 0.909494701773D-12 0.684000000000D+05
    0.135641059570D+05 0.276758003235D+01 0.931322574615D-09 0.000000000000D+00
   -0.754384375000D+04 0.248491287231D+00 0.000000000000D+00 0.000000000000D+00
    0.202620126953D+05-0.175156021118D+01-0.186264514923D-08 0.000000000000D+00
12 14 05 08 19 15  0.0-0.383919104934D-04 0.909494701773D-12 0.684000000000D+05
   -0.623499853516D+04 0.298731994629D+01-0.931322574615D-09 0.000000000000D+00
   -0.112097553711D+05 0.482790946960D+00 0.000000000000D+00-0.100000000000D+01
    0.220422578125D+05 0.107448959351D+01-0.186264514923D-08 0.000000000000D+00
21 14 05 08 19 15  0.0-0.700186938047D-04-0.181898940355D-11 0.684000000000D+05
    0.173980932617D+05-0.142446708679D+01 0.186264514923D-08 0.000000000000D+00
   -0.104112260742D+05 0.158226490021D+01 0.000000000000D+00 0.400000000000D+01
    0.155376040039D+05 0.264795589447D+01-0.931322574615D-09 0.000000000000D+00
 2 14 05 08 19 15  0.0 0.716270878911D-04 0.181898940355D-11 0.684000000000D+05
   -0.137092060547D+05-0.782339096069D+00-0.186264514923D-08 0.000000000000D+00
   -0.176859946289D+05-0.148559951782D+01 0.000000000000D+00-0.400000000000D+01
    0.122540395508D+05-0.303100872040D+01 0.000000000000D+00 0.000000000000D+00
22 14 05 08 19 15  0.0 0.122713856399D-03 0.000000000000D+00 0.684000000000D+05
    0.156095849609D+05-0.135821342468D+00 0.931322574615D-09 0.000000000000D+00
   -0.200758627930D+05-0.110290527344D+00 0.931322574615D-09-0.300000000000D+01
   -0.176513671875D+02 0.359198760986D+01 0.000000000000D+00 0.000000000000D+00
 1 14 05 08 19 15  0.0-0.164408236742D-03 0.000000000000D+00 0.684000000000D+05
   -0.747789941406D+04 0.129076957703D+00-0.186264514923D-08 0.000000000000D+00
   -0.239002700195D+05 0.671948432922D+00 0.000000000000D+00 0.100000000000D+01
   -0.488974267578D+04-0.347819519043D+01 0.931322574615D-09 0.000000000000D+00
20 14 05 08 19 15  0.0-0.108761712909D-03-0.181898940355D-11 0.684000000000D+05
    0.101771210938D+05-0.198174190521D+01 0.931322574615D-09 0.000000000000D+00
    0.439750634766D+04 0.244267082214D+01 0.000000000000D+00 0.200000000000D+01
    0.229797885742D+05 0.415925979614D+00-0.186264514923D-08 0.000000000000D+00
 3 14 05 08 19 15  0.0 0.149933621287D-04 0.909494701773D-12 0.684000000000D+05
   -0.120317871094D+05-0.121175098419D+01-0.931322574615D-09 0.000000000000D+00
   -0.105630566406D+04-0.282197761536D+01-0.931322574615D-09 0.500000000000D+01
    0.225026000977D+05-0.783715248108D+00-0.186264514923D-08 0.000000000000D+00
